{
  "type": "FeatureCollection",
  "features": [
    {
      "type": "Feature",
      "properties": {
        "norad_id": 58647,
        "name": "TIANMU-1 13",
        "group": "weather",
        "lat": 48.635365837940924,
        "lon": -171.41650402575027,
        "alt_km": 492.3790124363213,
        "timestamp": "2025-12-06T09:34:16.561964+00:00",
        "meta_object_name": "TIANMU-1 13",
        "meta_object_id": "2023-205C",
        "meta_epoch": "2025-12-05T23:32:48.837984",
        "meta_mean_motion": 15.24397137,
        "meta_eccentricity": 0.00061896,
        "meta_inclination": 97.3619,
        "meta_ra_of_asc_node": 359.7296,
        "meta_arg_of_pericenter": 298.1427,
        "meta_mean_anomaly": 61.9184,
        "meta_ephemeris_type": 0,
        "meta_classification_type": "U",
        "meta_norad_cat_id": 58647,
        "meta_element_set_no": 999,
        "meta_rev_at_epoch": 10804,
        "meta_bstar": 0.00038976766,
        "meta_mean_motion_dot": 9.491e-05,
        "meta_mean_motion_ddot": 0,
        "tle_line1": "1 58647U 23205C   25339.98112081  .00009491  00000+0  38977-3 0  9993",
        "tle_line2": "2 58647  97.3619 359.7296 0006189 298.1427  61.9184 15.24397137108049"
      },
      "geometry": {
        "type": "Point",
        "coordinates": [
          -171.41650402575027,
          48.635365837940924
        ]
      }
    },
    {
      "type": "Feature",
      "properties": {
        "norad_id": 58648,
        "name": "TIANMU-1 14",
        "group": "weather",
        "lat": -41.76906815633932,
        "lon": 172.8698306349948,
        "alt_km": 498.3455766802135,
        "timestamp": "2025-12-06T09:34:16.561975+00:00",
        "meta_object_name": "TIANMU-1 14",
        "meta_object_id": "2023-205D",
        "meta_epoch": "2025-12-05T23:08:48.191424",
        "meta_mean_motion": 15.24380269,
        "meta_eccentricity": 0.00070948,
        "meta_inclination": 97.3551,
        "meta_ra_of_asc_node": 359.0683,
        "meta_arg_of_pericenter": 302.5614,
        "meta_mean_anomaly": 57.4938,
        "meta_ephemeris_type": 0,
        "meta_classification_type": "U",
        "meta_norad_cat_id": 58648,
        "meta_element_set_no": 999,
        "meta_rev_at_epoch": 10804,
        "meta_bstar": 0.00038767972,
        "meta_mean_motion_dot": 9.436e-05,
        "meta_mean_motion_ddot": 0,
        "tle_line1": "1 58648U 23205D   25339.96444666  .00009436  00000+0  38768-3 0  9996",
        "tle_line2": "2 58648  97.3551 359.0683 0007094 302.5614  57.4938 15.24380269108047"
      },
      "geometry": {
        "type": "Point",
        "coordinates": [
          172.8698306349948,
          -41.76906815633932
        ]
      }
    },
    {
      "type": "Feature",
      "properties": {
        "norad_id": 58660,
        "name": "TIANMU-1 19",
        "group": "weather",
        "lat": 41.052109305360815,
        "lon": 84.91517538549749,
        "alt_km": 480.96421460253623,
        "timestamp": "2025-12-06T09:34:16.561987+00:00",
        "meta_object_name": "TIANMU-1 19",
        "meta_object_id": "2023-208A",
        "meta_epoch": "2025-12-05T22:23:09.786624",
        "meta_mean_motion": 15.27659931,
        "meta_eccentricity": 0.00040924,
        "meta_inclination": 97.4398,
        "meta_ra_of_asc_node": 90.9848,
        "meta_arg_of_pericenter": 283.5485,
        "meta_mean_anomaly": 76.5298,
        "meta_ephemeris_type": 0,
        "meta_classification_type": "U",
        "meta_norad_cat_id": 58660,
        "meta_element_set_no": 999,
        "meta_rev_at_epoch": 10778,
        "meta_bstar": 0.00053577118,
        "meta_mean_motion_dot": 0.00014426,
        "meta_mean_motion_ddot": 0,
        "tle_line1": "1 58660U 23208A   25339.93275216  .00014426  00000+0  53577-3 0  9993",
        "tle_line2": "2 58660  97.4398  90.9848 0004092 283.5485  76.5298 15.27659931107783"
      },
      "geometry": {
        "type": "Point",
        "coordinates": [
          84.91517538549749,
          41.052109305360815
        ]
      }
    },
    {
      "type": "Feature",
      "properties": {
        "norad_id": 58661,
        "name": "TIANMU-1 20",
        "group": "weather",
        "lat": 82.43948690883704,
        "lon": 12.250363024756979,
        "alt_km": 475.73711880872725,
        "timestamp": "2025-12-06T09:34:16.561998+00:00",
        "meta_object_name": "TIANMU-1 20",
        "meta_object_id": "2023-208B",
        "meta_epoch": "2025-12-05T22:11:21.081984",
        "meta_mean_motion": 15.28852239,
        "meta_eccentricity": 0.00063996,
        "meta_inclination": 97.4335,
        "meta_ra_of_asc_node": 91.4176,
        "meta_arg_of_pericenter": 294.6136,
        "meta_mean_anomaly": 65.4437,
        "meta_ephemeris_type": 0,
        "meta_classification_type": "U",
        "meta_norad_cat_id": 58661,
        "meta_element_set_no": 999,
        "meta_rev_at_epoch": 10785,
        "meta_bstar": 0.00051690854,
        "meta_mean_motion_dot": 0.00014437,
        "meta_mean_motion_ddot": 0,
        "tle_line1": "1 58661U 23208B   25339.92454956  .00014437  00000+0  51691-3 0  9990",
        "tle_line2": "2 58661  97.4335  91.4176 0006399 294.6136  65.4437 15.28852239107850"
      },
      "geometry": {
        "type": "Point",
        "coordinates": [
          12.250363024756979,
          82.43948690883704
        ]
      }
    },
    {
      "type": "Feature",
      "properties": {
        "norad_id": 58662,
        "name": "TIANMU-1 21",
        "group": "weather",
        "lat": 36.06758923383341,
        "lon": 88.31095194494789,
        "alt_km": 470.73593865518797,
        "timestamp": "2025-12-06T09:34:16.562010+00:00",
        "meta_object_name": "TIANMU-1 21",
        "meta_object_id": "2023-208C",
        "meta_epoch": "2025-12-05T22:26:05.461152",
        "meta_mean_motion": 15.31329872,
        "meta_eccentricity": 0.00059265,
        "meta_inclination": 97.4383,
        "meta_ra_of_asc_node": 93.3059,
        "meta_arg_of_pericenter": 288.7275,
        "meta_mean_anomaly": 71.3322,
        "meta_ephemeris_type": 0,
        "meta_classification_type": "U",
        "meta_norad_cat_id": 58662,
        "meta_element_set_no": 999,
        "meta_rev_at_epoch": 10795,
        "meta_bstar": 0.00055072085,
        "meta_mean_motion_dot": 0.00016612,
        "meta_mean_motion_ddot": 0,
        "tle_line1": "1 58662U 23208C   25339.93478543  .00016612  00000+0  55072-3 0  9994",
        "tle_line2": "2 58662  97.4383  93.3059 0005926 288.7275  71.3322 15.31329872107954"
      },
      "geometry": {
        "type": "Point",
        "coordinates": [
          88.31095194494789,
          36.06758923383341
        ]
      }
    },
    {
      "type": "Feature",
      "properties": {
        "norad_id": 58663,
        "name": "TIANMU-1 22",
        "group": "weather",
        "lat": 47.603818616232026,
        "lon": 83.2835996964,
        "alt_km": 479.30221735789473,
        "timestamp": "2025-12-06T09:34:16.562022+00:00",
        "meta_object_name": "TIANMU-1 22",
        "meta_object_id": "2023-208D",
        "meta_epoch": "2025-12-05T22:21:19.331136",
        "meta_mean_motion": 15.27427736,
        "meta_eccentricity": 0.00029598,
        "meta_inclination": 97.4391,
        "meta_ra_of_asc_node": 91.0456,
        "meta_arg_of_pericenter": 319.6838,
        "meta_mean_anomaly": 40.4181,
        "meta_ephemeris_type": 0,
        "meta_classification_type": "U",
        "meta_norad_cat_id": 58663,
        "meta_element_set_no": 999,
        "meta_rev_at_epoch": 10779,
        "meta_bstar": 0.00049930446,
        "meta_mean_motion_dot": 0.00013342,
        "meta_mean_motion_ddot": 0,
        "tle_line1": "1 58663U 23208D   25339.93147374  .00013342  00000+0  49930-3 0  9993",
        "tle_line2": "2 58663  97.4391  91.0456 0002959 319.6838  40.4181 15.27427736107797"
      },
      "geometry": {
        "type": "Point",
        "coordinates": [
          83.2835996964,
          47.603818616232026
        ]
      }
    },
    {
      "type": "Feature",
      "properties": {
        "norad_id": 58700,
        "name": "TIANMU-1 15",
        "group": "weather",
        "lat": -62.866659949862736,
        "lon": -32.92857808330335,
        "alt_km": 498.75495600837894,
        "timestamp": "2025-12-06T09:34:16.562049+00:00",
        "meta_object_name": "TIANMU-1 15",
        "meta_object_id": "2024-004A",
        "meta_epoch": "2025-12-05T23:03:11.479392",
        "meta_mean_motion": 15.24542086,
        "meta_eccentricity": 0.0005585,
        "meta_inclination": 97.4624,
        "meta_ra_of_asc_node": 161.4547,
        "meta_arg_of_pericenter": 326.3713,
        "meta_mean_anomaly": 33.717,
        "meta_ephemeris_type": 0,
        "meta_classification_type": "U",
        "meta_norad_cat_id": 58700,
        "meta_element_set_no": 999,
        "meta_rev_at_epoch": 10631,
        "meta_bstar": 0.00041631215,
        "meta_mean_motion_dot": 0.00010184,
        "meta_mean_motion_ddot": 0,
        "tle_line1": "1 58700U 24004A   25339.96054953  .00010184  00000+0  41631-3 0  9994",
        "tle_line2": "2 58700  97.4624 161.4547 0005585 326.3713  33.7170 15.24542086106319"
      },
      "geometry": {
        "type": "Point",
        "coordinates": [
          -32.92857808330335,
          -62.866659949862736
        ]
      }
    }
  ]
}